{"type": "FeatureCollection", "features": [ {"type": "Feature", "properties": {"norad_id": 66584, "name": "STARLINK-35939", "group": "last-30-days", "lat": 42.91724595714492, "lon": 147.3686280315595, "alt_km": 392.25984433560916, "timestamp": "2025-12-24T05:51:18.323733+00:00", "meta": {"OBJECT_NAME": "STARLINK-35939", "OBJECT_ID": "2025-268AD", "EPOCH": "2025-12-24T00:00:00.999648", "MEAN_MOTION": 15.566308, "ECCENTRICITY": 0.00010383, "INCLINATION": 43.0004, "RA_OF_ASC_NODE": 55.0171, "ARG_OF_PERICENTER": 263.1265, "MEAN_ANOMALY": 261.0688, "EPHEMERIS_TYPE": 0, "CLASSIFICATION_TYPE": "U", "NORAD_CAT_ID": 66584, "ELEMENT_SET_NO": 999, "REV_AT_EPOCH": 611, "BSTAR": -0.0087062996, "MEAN_MOTION_DOT": -0.00591871, "MEAN_MOTION_DDOT": 0}, "tle": {"line1": "1 66584U 25268AD  25358.00001157 -.00591871  00000+0 -87063-2 0  9997", "line2": "2 66584  43.0004  55.0171 0001038 263.1265 261.0688 15.56630800  6111"}}, "geometry": {"type": "Point", "coordinates": [147.3686280315595, 42.91724595714492]}}, {"type": "Feature", "properties": {"norad_id": 66585, "name": "STARLINK-35963", "group": "last-30-days", "lat": 18.32483299815203, "lon": 74.55585840419116, "alt_km": 433.51949758654246, "timestamp": "2025-12-24T05:51:18.323744+00:00", "meta": {"OBJECT_NAME": "STARLINK-35963", "OBJECT_ID": "2025-268AE", "EPOCH": "2025-12-24T00:00:00.999648", "MEAN_MOTION": 15.44554545, "ECCENTRICITY": 0.00015344, "INCLINATION": 43.0004, "RA_OF_ASC_NODE": 55.1501, "ARG_OF_PERICENTER": 277.46, "MEAN_ANOMALY": 192.4612, "EPHEMERIS_TYPE": 0, "CLASSIFICATION_TYPE": "U", "NORAD_CAT_ID": 66585, "ELEMENT_SET_NO": 999, "REV_AT_EPOCH": 611, "BSTAR": -0.047992115, "MEAN_MOTION_DOT": -0.02031209, "MEAN_MOTION_DDOT": 0}, "tle": {"line1": "1 66585U 25268AE  25358.00001157 -.02031209  00000+0 -47992-1 0  9990", "line2": "2 66585  43.0004  55.1501 0001534 277.4600 192.4612 15.44554545  6114"}}, "geometry": {"type": "Point", "coordinates": [74.55585840419116, 18.32483299815203]}}, {"type": "Feature", "properties": {"norad_id": 66586, "name": "TJS-21", "group": "last-30-days", "lat": 40.52835609085198, "lon": -173.35963007695958, "alt_km": 21994.556313508285, "timestamp": "2025-12-24T05:51:18.323757+00:00", "meta": {"OBJECT_NAME": "TJS-21", "OBJECT_ID": "2025-269A", "EPOCH": "2025-12-18T16:58:10.473888", "MEAN_MOTION": 2.00580748, "ECCENTRICITY": 0.6806869, "INCLINATION": 63.2733, "RA_OF_ASC_NODE": 161.7218, "ARG_OF_PERICENTER": 269.7428, "MEAN_ANOMALY": 18.6663, "EPHEMERIS_TYPE": 0, "CLASSIFICATION_TYPE": "U", "NORAD_CAT_ID": 66586, "ELEMENT_SET_NO": 999, "REV_AT_EPOCH": 55, "BSTAR": -0.059507049, "MEAN_MOTION_DOT": 1.084e-05, "MEAN_MOTION_DDOT": 0}, "tle": {"line1": "1 66586U 25269A   25352.70706567  .00001084  00000+0 -59507-1 0  9990", "line2": "2 66586  63.2733 161.7218 6806869 269.7428  18.6663  2.00580748   558"}}, "geometry": {"type": "Point", "coordinates": [-173.35963007695958, 40.52835609085198]}}, {"type": "Feature", "properties": {"norad_id": 66588, "name": "STARLINK-36076", "group": "last-30-days", "lat": 2.421484955788509, "lon": -56.10875799433763, "alt_km": 443.3285431304821, "timestamp": "2025-12-24T05:51:18.323771+00:00", "meta": {"OBJECT_NAME": "STARLINK-36076", "OBJECT_ID": "2025-270A", "EPOCH": "2025-12-23T18:12:07.653024", "MEAN_MOTION": 15.40717782, "ECCENTRICITY": 0.00022077, "INCLINATION": 43.0004, "RA_OF_ASC_NODE": 129.291, "ARG_OF_PERICENTER": 263.5798, "MEAN_ANOMALY": 96.4807, "EPHEMERIS_TYPE": 0, "CLASSIFICATION_TYPE": "U", "NORAD_CAT_ID": 66588, "ELEMENT_SET_NO": 999, "REV_AT_EPOCH": 604, "BSTAR": 0.0010378149, "MEAN_MOTION_DOT": 0.00043322, "MEAN_MOTION_DDOT": 0}, "tle": {"line1": "1 66588U 25270A   25357.75842191  .00043322  00000+0  10378-2 0  9992", "line2": "2 66588  43.0004 129.2910 0002207 263.5798  96.4807 15.40717782  6047"}}, "geometry": {"type": "Point", "coordinates": [-56.10875799433763, 2.421484955788509]}}, {"type": "Feature", "properties": {"norad_id": 66589, "name": "STARLINK-35447", "group": "last-30-days", "lat": -42.69419793301234, "lon": 44.352965746126614, "alt_km": 446.12202883178816, "timestamp": "2025-12-24T05:51:18.323781+00:00", "meta": {"OBJECT_NAME": "STARLINK-35447", "OBJECT_ID": "2025-270B", "EPOCH": "2025-12-23T16:12:58.169664", "MEAN_MOTION": 15.40729433, "ECCENTRICITY": 0.00015236, "INCLINATION": 43.001, "RA_OF_ASC_NODE": 129.5272, "ARG_OF_PERICENTER": 275.3218, "MEAN_ANOMALY": 84.7465, "EPHEMERIS_TYPE": 0, "CLASSIFICATION_TYPE": "U", "NORAD_CAT_ID": 66589, "ELEMENT_SET_NO": 999, "REV_AT_EPOCH": 614, "BSTAR": 0.001156158, "MEAN_MOTION_DOT": 0.00048346, "MEAN_MOTION_DDOT": 0}, "tle": {"line1": "1 66589U 25270B   25357.67567326  .00048346  00000+0  11562-2 0  9995", "line2": "2 66589  43.0010 129.5272 0001523 275.3218  84.7465 15.40729433  6144"}}, "geometry": {"type": "Point", "coordinates": [44.352965746126614, -42.69419793301234]}}, {"type": "Feature", "properties": {"norad_id": 66590, "name": "STARLINK-35429", "group": "last-30-days", "lat": 2.05816367500751, "lon": 128.25046180138395, "alt_km": 443.2123342879304, "timestamp": "2025-12-24T05:51:18.323792+00:00", "meta": {"OBJECT_NAME": "STARLINK-35429", "OBJECT_ID": "2025-270C", "EPOCH": "2025-12-23T18:57:05.300352", "MEAN_MOTION": 15.40759913, "ECCENTRICITY": 0.00021935, "INCLINATION": 43.0027, "RA_OF_ASC_NODE": 128.6594, "ARG_OF_PERICENTER": 269.5993, "MEAN_ANOMALY": 90.4612, "EPHEMERIS_TYPE": 0, "CLASSIFICATION_TYPE": "U", "NORAD_CAT_ID": 66590, "ELEMENT_SET_NO": 999, "REV_AT_EPOCH": 616, "BSTAR": 0.0014864851, "MEAN_MOTION_DOT": 0.00062426, "MEAN_MOTION_DDOT": 0}, "tle": {"line1": "1 66590U 25270C   25357.78964468  .00062426  00000+0  14865-2 0  9991", "line2": "2 66590  43.0027 128.6594 0002193 269.5993  90.4612 15.40759913  6166"}}, "geometry": {"type": "Point", "coordinates": [128.25046180138395, 2.05816367500751]}}, {"type": "Feature", "properties": {"norad_id": 66591, "name": "STARLINK-36058", "group": "last-30-days", "lat": 42.980429449942505, "lon": -144.17968076077338, "alt_km": 438.2222959055298, "timestamp": "2025-12-24T05:51:18.323802+00:00", "meta": {"OBJECT_NAME": "STARLINK-36058", "OBJECT_ID": "2025-270D", "EPOCH": "2025-12-24T00:00:00.999648", "MEAN_MOTION": 15.40684723, "ECCENTRICITY": 0.00014431, "INCLINATION": 43.0007, "RA_OF_ASC_NODE": 127.2349, "ARG_OF_PERICENTER": 277.3057, "MEAN_ANOMALY": 258.0125, "EPHEMERIS_TYPE": 0, "CLASSIFICATION_TYPE": "U", "NORAD_CAT_ID": 66591, "ELEMENT_SET_NO": 999, "REV_AT_EPOCH": 599, "BSTAR": 0.00024874011, "MEAN_MOTION_DOT": 0.00010095, "MEAN_MOTION_DDOT": 0}, "tle": {"line1": "1 66591U 25270D   25358.00001157  .00010095  00000+0  24874-3 0  9992", "line2": "2 66591  43.0007 127.2349 0001443 277.3057 258.0125 15.40684723  5990"}}, "geometry": {"type": "Point", "coordinates": [-144.17968076077338, 42.980429449942505]}}, {"type": "Feature", "properties": {"norad_id": 66592, "name": "STARLINK-36066", "group": "last-30-days", "lat": -29.540326327899002, "lon": -16.17509493844985, "alt_km": 445.8666657771928, "timestamp": "2025-12-24T05:51:18.323812+00:00", "meta": {"OBJECT_NAME": "STARLINK-36066", "OBJECT_ID": "2025-270E", "EPOCH": "2025-12-23T16:25:52.540032", "MEAN_MOTION": 15.40757063, "ECCENTRICITY": 9.856e-05, "INCLINATION": 43.0002, "RA_OF_ASC_NODE": 129.5941, "ARG_OF_PERICENTER": 268.7494, "MEAN_ANOMALY": 91.3249, "EPHEMERIS_TYPE": 0, "CLASSIFICATION_TYPE": "U", "NORAD_CAT_ID": 66592, "ELEMENT_SET_NO": 999, "REV_AT_EPOCH": 593, "BSTAR": 0.0015872242, "MEAN_MOTION_DOT": 0.00066707, "MEAN_MOTION_DDOT": 0}, "tle": {"line1": "1 66592U 25270E   25357.68463588  .00066707  00000+0  15872-2 0  9994", "line2": "2 66592  43.0002 129.5941 0000985 268.7494  91.3249 15.40757063  5935"}}, "geometry": {"type": "Point", "coordinates": [-16.17509493844985, -29.540326327899002]}}, {"type": "Feature", "properties": {"norad_id": 66593, "name": "STARLINK-36031", "group": "last-30-days", "lat": -29.69218335649356, "lon": 88.4345886011635, "alt_km": 445.198654223248, "timestamp": "2025-12-24T05:51:18.323822+00:00", "meta": {"OBJECT_NAME": "STARLINK-36031", "OBJECT_ID": "2025-270F", "EPOCH": "2025-12-22T18:16:19.903008", "MEAN_MOTION": 15.40709411, "ECCENTRICITY": 0.00021218, "INCLINATION": 43.004, "RA_OF_ASC_NODE": 134.7018, "ARG_OF_PERICENTER": 277.8228, "MEAN_ANOMALY": 82.2387, "EPHEMERIS_TYPE": 0, "CLASSIFICATION_TYPE": "U", "NORAD_CAT_ID": 66593, "ELEMENT_SET_NO": 999, "REV_AT_EPOCH": 589, "BSTAR": 0.00056790845, "MEAN_MOTION_DOT": 0.000235, "MEAN_MOTION_DDOT": 0}, "tle": {"line1": "1 66593U 25270F   25356.76134147  .00023500  00000+0  56791-3 0  9999", "line2": "2 66593  43.0040 134.7018 0002121 277.8228  82.2387 15.40709411  5892"}}, "geometry": {"type": "Point", "coordinates": [88.4345886011635, -29.69218335649356]}}, {"type": "Feature", "properties": {"norad_id": 66594, "name": "STARLINK-36032", "group": "last-30-days", "lat": 32.861341124216096, "lon": 169.7952301502705, "alt_km": 439.91533775587413, "timestamp": "2025-12-24T05:51:18.323833+00:00", "meta": {"OBJECT_NAME": "STARLINK-36032", "OBJECT_ID": "2025-270G", "EPOCH": "2025-12-23T15:37:29.022240", "MEAN_MOTION": 15.40717156, "ECCENTRICITY": 0.00031713, "INCLINATION": 43.0045, "RA_OF_ASC_NODE": 129.3366, "ARG_OF_PERICENTER": 281.74, "MEAN_ANOMALY": 78.3101, "EPHEMERIS_TYPE": 0, "CLASSIFICATION_TYPE": "U", "NORAD_CAT_ID": 66594, "ELEMENT_SET_NO": 999, "REV_AT_EPOCH": 584, "BSTAR": 0.0010129221, "MEAN_MOTION_DOT": 0.00042272, "MEAN_MOTION_DDOT": 0}, "tle": {"line1": "1 66594U 25270G   25357.65103035  .00042272  00000+0  10129-2 0  9992", "line2": "2 66594  43.0045 129.3366 0003171 281.7400  78.3101 15.40717156  5846"}}, "geometry": {"type": "Point", "coordinates": [169.7952301502705, 32.861341124216096]}}]}